OBJECT_NAME,OBJECT_ID,EPOCH,MEAN_MOTION,ECCENTRICITY,INCLINATION,RA_OF_ASC_NODE,ARG_OF_PERICENTER,MEAN_ANOMALY,EPHEMERIS_TYPE,CLASSIFICATION_TYPE,NORAD_CAT_ID,ELEMENT_SET_NO,REV_AT_EPOCH,BSTAR,MEAN_MOTION_DOT,MEAN_MOTION_DDOT
EAGLEEYE,2024-149AS,2026-05-11T18:53:03.783840,15.65048516,.0001994,97.3719,223.2951,56.7431,303.4019,0,U,60508,999,9723,.49963E-3,.49172E-3,0
FLOCK 4BE-29,2024-149AT,2026-05-11T16:20:10.182624,15.42942731,.0003881,97.3805,217.0404,84.4849,275.6841,0,U,60509,999,9678,.25544E-3,.11153E-3,0
TRANSPORTER-11 OBJECT AU,2024-149AU,2026-05-11T19:01:52.170816,15.39198516,.0004794,97.3726,215.2535,73.3579,286.8193,0,U,60510,999,9671,.24663E-3,.9506E-4,0
FLOCK 4BE-2,2024-149AV,2026-05-11T15:56:53.930112,15.48993862,.0003681,97.3820,218.0335,84.0976,276.0694,0,U,60511,999,9684,.56875E-3,.30757E-3,0
FLOCK 4BE-13,2024-149AW,2026-05-11T11:25:33.070944,15.40896548,.00048286,97.3716,215.5361,57.8671,302.3043,0,U,60512,999,9671,.22742044E-3,.9264E-4,0
FLOCK 4BE-27,2024-149AX,2026-05-11T20:42:57.678048,15.33808534,.0005349,97.3825,213.7157,81.7990,278.3859,0,U,60513,999,9657,.17047E-3,.5496E-4,0
FLOCK 4BE-9,2024-149AY,2026-05-11T18:32:47.993280,15.39697486,.000402,97.3789,215.7241,85.8735,274.2970,0,U,60514,999,9671,.28395E-3,.11139E-3,0
FLOCK 4BE-6,2024-149BA,2026-05-11T18:34:31.814112,15.38575677,.0004776,97.3786,215.1493,82.1257,278.0530,0,U,60516,999,9667,.26246E-3,.9918E-4,0
FLOCK 4BE-14,2024-149BB,2026-05-11T18:56:46.305312,15.39863852,.0005626,97.3693,215.2728,78.9907,281.1971,0,U,60517,999,9672,.25861E-3,.10195E-3,0
FLOCK 4BE-1,2024-149BC,2026-05-11T20:12:43.438752,15.41378602,.000514,97.3778,216.4758,78.5963,281.5861,0,U,60518,999,9677,.2855E-3,.11844E-3,0
FLOCK 4BE-28,2024-149BD,2026-05-11T18:43:45.238080,15.43629066,.0005214,97.3744,217.0270,73.8685,286.3137,0,U,60519,999,9682,.28332E-3,.12675E-3,0
IPERDRONE.0,2024-149BE,2026-05-11T18:34:52.117248,15.61839038,.000169,97.3772,223.3373,46.1605,313.9792,0,U,60520,999,9722,.46361E-3,.40195E-3,0
TRANSPORTER-11 OBJECT BF,2024-149BF,2026-05-11T18:48:41.571072,15.72351625,.0000554,97.3770,225.3043,349.0894,11.0357,0,U,60521,999,9734,.71934E-3,.96003E-3,0
CONNECTA IOT-2,2024-149BG,2026-05-11T17:38:03.295104,15.23657488,.0008172,97.3840,210.4414,94.2062,266.0109,0,U,60522,999,9634,.11645E-3,.2723E-4,0
PTD-R (TYVAK-0127),2024-149BH,2026-05-11T19:37:50.687328,15.87618577,.0001137,97.3765,229.3449,212.0432,148.0771,0,U,60523,999,9763,.55411E-3,.148729E-2,0
CONNECTA IOT-4,2024-149BJ,2026-05-11T11:08:16.667520,15.40792610,.00062943,97.3794,215.4407,72.2396,287.9537,0,U,60524,999,9667,.28162201E-3,.11458E-3,0
ORESAT0.5,2024-149BK,2026-05-11T18:26:43.646208,15.43717027,.0006242,97.3716,217.2527,61.8508,298.3370,0,U,60525,999,9685,.28139E-3,.12628E-3,0
DEIMOS,2024-149BL,2026-05-11T18:45:17.394912,15.42925628,.000639,97.3776,217.4225,67.3038,292.8884,0,U,60526,999,9683,.28266E-3,.12351E-3,0
CUAVA-2,2024-149BM,2026-05-11T18:55:47.518752,15.35272967,.0007907,97.3725,213.2712,70.4743,289.7354,0,U,60527,999,9658,.23683E-3,.8038E-4,0
ERNST,2024-149BN,2026-05-11T11:47:40.206048,15.38234928,.00073026,97.3803,214.9654,75.0874,285.1179,0,U,60528,999,9663,.23889246E-3,.8923E-4,0
TORO,2024-149BQ,2026-05-11T14:16:09.704064,14.96284745,.0001587,97.6790,206.9479,95.1971,264.9432,0,U,60530,999,9448,.75228E-4,.793E-5,0
HYPSO-2,2024-149BR,2026-05-11T14:42:31.383072,14.98604247,.0002125,97.6818,208.4090,113.2203,246.9244,0,U,60531,999,9457,.13752E-3,.1591E-4,0
LEMU NGE,2024-149BS,2026-05-11T15:18:08.021376,14.94800006,.0002542,97.6847,207.3384,114.2748,245.8738,0,U,60532,999,9449,.12906E-3,.1348E-4,0
LEMUR-2-STELLA,2024-149BT,2026-05-11T16:02:04.507008,15.10998508,.0001954,97.6731,213.9892,123.5762,236.5654,0,U,60533,999,9498,.36755E-3,.6074E-4,0
SATELIOT_2,2024-149BU,2026-05-11T15:31:44.657760,14.96225223,.0001359,97.6834,207.2719,107.7464,252.3905,0,U,60534,999,9450,.6948E-4,.727E-5,0
NIGHTJAR,2024-149BV,2026-05-11T16:13:42.072960,14.98798821,.0001197,97.6834,208.8949,156.7980,203.3297,0,U,60535,999,13740,.14603E-3,.1702E-4,0
LEMUR-2-MARHISYAM,2024-149BW,2026-05-11T18:26:06.030240,15.10489655,.0001419,97.6875,214.4998,197.4282,162.6898,0,U,60536,999,9498,.41221E-3,.6724E-4,0
SATELIOT_4,2024-149BX,2026-05-11T15:58:12.523008,14.96530605,.0002934,97.6737,206.8425,133.6992,226.4473,0,U,60537,999,9451,.97688E-4,.1054E-4,0
PICO-02A021,2024-149BY,2026-05-11T11:38:19.660128,15.02902826,.00065905,97.6767,210.6440,131.9823,228.1965,0,U,60538,999,9422,.23246488E-3,.306E-4,0
ICEYE-X43,2024-149BZ,2026-05-11T19:11:28.171104,14.99742490,.0004375,97.6770,209.2670,203.4964,156.6060,0,U,60539,999,9466,.13167E-3,.1567E-4,0
